[{"OBJECT_NAME":"COSMOS 2486","OBJECT_ID":"2013-028A","EPOCH":"2026-03-09T22:16:04.416096","MEAN_MOTION":14.56145147,"ECCENTRICITY":0.00103796,"INCLINATION":98.004,"RA_OF_ASC_NODE":40.2497,"ARG_OF_PERICENTER":332.4054,"MEAN_ANOMALY":27.6592,"EPHEMERIS_TYPE":0,"CLASSIFICATION_TYPE":"U","NORAD_CAT_ID":39177,"ELEMENT_SET_NO":999,"REV_AT_EPOCH":67693,"BSTAR":6.977993e-5,"MEAN_MOTION_DOT":2.65e-6,"MEAN_MOTION_DDOT":0},{"OBJECT_NAME":"DELTA 1 DEB","OBJECT_ID":"1978-026DJ","EPOCH":"2026-03-09T10:41:46.554144","MEAN_MOTION":14.38281394,"ECCENTRICITY":0.01051019,"INCLINATION":98.8485,"RA_OF_ASC_NODE":248.6885,"ARG_OF_PERICENTER":21.1542,"MEAN_ANOMALY":38.0471,"EPHEMERIS_TYPE":0,"CLASSIFICATION_TYPE":"U","NORAD_CAT_ID":12265,"ELEMENT_SET_NO":999,"REV_AT_EPOCH":29892,"BSTAR":0.0014774943,"MEAN_MOTION_DOT":4.746e-5,"MEAN_MOTION_DDOT":0}]
